{
  "constellation": "oneweb",
  "timestamp": "2025-07-21T05:06:13.717346+00:00",
  "satellite_count": 651,
  "data": [
    {
      "satellite_name": "ONEWEB-0233",
      "catalog_number": 48795,
      "epoch_year": 2025,
      "epoch_day": 201.86521864,
      "first_derivative": 1.49e-06,
      "second_derivative": 0.0,
      "drag_term": 0.0,
      "inclination": 87.908,
      "right_ascension": 325.3112,
      "eccentricity": 0.0002172,
      "argument_of_perigee": 91.5705,
      "mean_anomaly": 268.5674,
      "mean_motion": 13.15549543,
      "revolution_number": 20184,
      "line1": "1 48795U 21045AE  25201.86521864  .00000149  00000+0  36301-3 0  9994",
      "line2": "2 48795  87.9080 325.3112 0002172  91.5705 268.5674 13.15549543201846",
      "last_updated": "2025-07-21T05:06:13.714213+00:00",
      "constellation": "oneweb"
    },
    {
      "satellite_name": "ONEWEB-0190",
      "catalog_number": 48796,
      "epoch_year": 2025,
      "epoch_day": 201.62450046,
      "first_derivative": -1.07e-06,
      "second_derivative": 0.0,
      "drag_term": -0.00031905000000000003,
      "inclination": 87.9079,
      "right_ascension": 325.3235,
      "eccentricity": 0.0002695,
      "argument_of_perigee": 91.1676,
      "mean_anomaly": 268.9764,
      "mean_motion": 13.1554922,
      "revolution_number": 20077,
      "line1": "1 48796U 21045AF  25201.62450046 -.00000107  00000+0 -31905-3 0  9993",
      "line2": "2 48796  87.9079 325.3235 0002695  91.1676 268.9764 13.15549220200771",
      "last_updated": "2025-07-21T05:06:13.714215+00:00",
      "constellation": "oneweb"
    },
    {
      "satellite_name": "ONEWEB-0236",
      "catalog_number": 48797,
      "epoch_year": 2025,
      "epoch_day": 201.64192052,
      "first_derivative": 1.7e-06,
      "second_derivative": 0.0,
      "drag_term": 0.0,
      "inclination": 87.9088,
      "right_ascension": 325.3291,
      "eccentricity": 0.0001831,
      "argument_of_perigee": 96.3929,
      "mean_anomaly": 263.741,
      "mean_motion": 13.15546774,
      "revolution_number": 20066,
      "line1": "1 48797U 21045AG  25201.64192052  .00000170  00000+0  41689-3 0  9994",
      "line2": "2 48797  87.9088 325.3291 0001831  96.3929 263.7410 13.15546774200663",
      "last_updated": "2025-07-21T05:06:13.714217+00:00",
      "constellation": "oneweb"
    },
    {
      "satellite_name": "ONEWEB-0248",
      "catalog_number": 48798,
      "epoch_year": 2025,
      "epoch_day": 201.8827962,
      "first_derivative": -8.1e-07,
      "second_derivative": 0.0,
      "drag_term": -0.00024807000000000003,
      "inclination": 87.9073,
      "right_ascension": 325.2366,
      "eccentricity": 0.0002341,
      "argument_of_perigee": 83.1327,
      "mean_anomaly": 277.0069,
      "mean_motion": 13.15548817,
      "revolution_number": 20197,
      "line1": "1 48798U 21045AH  25201.88279620 -.00000081  00000+0 -24807-3 0  9994",
      "line2": "2 48798  87.9073 325.2366 0002341  83.1327 277.0069 13.15548817201976",
      "last_updated": "2025-07-21T05:06:13.714219+00:00",
      "constellation": "oneweb"
    },
    {
      "satellite_name": "ONEWEB-0225",
      "catalog_number": 48799,
      "epoch_year": 2025,
      "epoch_day": 201.60075032,
      "first_derivative": -7.8e-07,
      "second_derivative": 0.0,
      "drag_term": -0.00024229,
      "inclination": 87.9084,
      "right_ascension": 325.3243,
      "eccentricity": 0.0002533,
      "argument_of_perigee": 91.3191,
      "mean_anomaly": 268.823,
      "mean_motion": 13.15549291,
      "revolution_number": 20082,
      "line1": "1 48799U 21045AJ  25201.60075032 -.00000078  00000+0 -24229-3 0  9990",
      "line2": "2 48799  87.9084 325.3243 0002533  91.3191 268.8230 13.15549291200825",
      "last_updated": "2025-07-21T05:06:13.714221+00:00",
      "constellation": "oneweb"
    },
    {
      "satellite_name": "ONEWEB-0215",
      "catalog_number": 48800,
      "epoch_year": 2025,
      "epoch_day": 201.64668348,
      "first_derivative": -1.14e-06,
      "second_derivative": 0.0,
      "drag_term": -0.00033617000000000006,
      "inclination": 87.9076,
      "right_ascension": 325.266,
      "eccentricity": 0.0002506,
      "argument_of_perigee": 86.4217,
      "mean_anomaly": 273.72,
      "mean_motion": 13.15549382,
      "revolution_number": 20070,
      "line1": "1 48800U 21045AK  25201.64668348 -.00000114  00000+0 -33617-3 0  9997",
      "line2": "2 48800  87.9076 325.2660 0002506  86.4217 273.7200 13.15549382200705",
      "last_updated": "2025-07-21T05:06:13.714223+00:00",
      "constellation": "oneweb"
    },
    {
      "satellite_name": "ONEWEB-0216",
      "catalog_number": 48801,
      "epoch_year": 2025,
      "epoch_day": 201.80830173,
      "first_derivative": 3e-08,
      "second_derivative": 0.0,
      "drag_term": -2.5866000000000003e-05,
      "inclination": 87.908,
      "right_ascension": 325.28,
      "eccentricity": 0.0002076,
      "argument_of_perigee": 102.8812,
      "mean_anomaly": 257.255,
      "mean_motion": 13.15549767,
      "revolution_number": 20185,
      "line1": "1 48801U 21045AL  25201.80830173  .00000003  00000+0 -25866-4 0  9997",
      "line2": "2 48801  87.9080 325.2800 0002076 102.8812 257.2550 13.15549767201852",
      "last_updated": "2025-07-21T05:06:13.714225+00:00",
      "constellation": "oneweb"
    },
    {
      "satellite_name": "ONEWEB-0239",
      "catalog_number": 48802,
      "epoch_year": 2025,
      "epoch_day": 201.58488746,
      "first_derivative": 4.1e-07,
      "second_derivative": 0.0,
      "drag_term": 0.0,
      "inclination": 87.9089,
      "right_ascension": 325.3354,
      "eccentricity": 0.0002393,
      "argument_of_perigee": 80.0476,
      "mean_anomaly": 280.0924,
      "mean_motion": 13.1554767,
      "revolution_number": 20074,
      "line1": "1 48802U 21045AM  25201.58488746  .00000041  00000+0  74350-4 0  9991",
      "line2": "2 48802  87.9089 325.3354 0002393  80.0476 280.0924 13.15547670200749",
      "last_updated": "2025-07-21T05:06:13.714227+00:00",
      "constellation": "oneweb"
    },
    {
      "satellite_name": "ONEWEB-0249",
      "catalog_number": 48967,
      "epoch_year": 2025,
      "epoch_day": 201.55336069,
      "first_derivative": 8.2e-07,
      "second_derivative": 0.0,
      "drag_term": 0.0,
      "inclination": 87.9055,
      "right_ascension": 294.8832,
      "eccentricity": 0.0001968,
      "argument_of_perigee": 97.5692,
      "mean_anomaly": 262.5662,
      "mean_motion": 13.16595655,
      "revolution_number": 19597,
      "line1": "1 48967U 21060A   25201.55336069  .00000082  00000+0  18137-3 0  9992",
      "line2": "2 48967  87.9055 294.8832 0001968  97.5692 262.5662 13.16595655195974",
      "last_updated": "2025-07-21T05:06:13.714229+00:00",
      "constellation": "oneweb"
    },
    {
      "satellite_name": "ONEWEB-0250",
      "catalog_number": 48968,
      "epoch_year": 2025,
      "epoch_day": 201.54833085,
      "first_derivative": 2.6e-07,
      "second_derivative": 0.0,
      "drag_term": 0.0,
      "inclination": 87.9055,
      "right_ascension": 293.7266,
      "eccentricity": 0.000189,
      "argument_of_perigee": 70.4353,
      "mean_anomaly": 289.6987,
      "mean_motion": 13.25809974,
      "revolution_number": 19627,
      "line1": "1 48968U 21060B   25201.54833085  .00000026  00000+0  29989-4 0  9998",
      "line2": "2 48968  87.9055 293.7266 0001890  70.4353 289.6987 13.25809974196278",
      "last_updated": "2025-07-21T05:06:13.714231+00:00",
      "constellation": "oneweb"
    },
    {
      "satellite_name": "ONEWEB-0252",
      "catalog_number": 48970,
      "epoch_year": 2025,
      "epoch_day": 201.73702121,
      "first_derivative": -2e-07,
      "second_derivative": 0.0,
      "drag_term": -8.6706e-05,
      "inclination": 87.9059,
      "right_ascension": 294.84,
      "eccentricity": 0.0002165,
      "argument_of_perigee": 107.9705,
      "mean_anomaly": 252.1662,
      "mean_motion": 13.16595174,
      "revolution_number": 19733,
      "line1": "1 48970U 21060D   25201.73702121 -.00000020  00000+0 -86706-4 0  9994",
      "line2": "2 48970  87.9059 294.8400 0002165 107.9705 252.1662 13.16595174197337",
      "last_updated": "2025-07-21T05:06:13.714233+00:00",
      "constellation": "oneweb"
    },
    {
      "satellite_name": "ONEWEB-0253",
      "catalog_number": 48971,
      "epoch_year": 2025,
      "epoch_day": 201.49794875,
      "first_derivative": 5.7e-07,
      "second_derivative": 0.0,
      "drag_term": 0.0,
      "inclination": 87.9059,
      "right_ascension": 294.8914,
      "eccentricity": 0.0002193,
      "argument_of_perigee": 96.6822,
      "mean_anomaly": 263.4559,
      "mean_motion": 13.1659515,
      "revolution_number": 19594,
      "line1": "1 48971U 21060E   25201.49794875  .00000057  00000+0  11641-3 0  9998",
      "line2": "2 48971  87.9059 294.8914 0002193  96.6822 263.4559 13.16595150195942",
      "last_updated": "2025-07-21T05:06:13.714235+00:00",
      "constellation": "oneweb"
    },
    {
      "satellite_name": "ONEWEB-0254",
      "catalog_number": 48972,
      "epoch_year": 2025,
      "epoch_day": 201.73544719,
      "first_derivative": -3.5e-07,
      "second_derivative": 0.0,
      "drag_term": -0.00012614,
      "inclination": 87.9061,
      "right_ascension": 294.8294,
      "eccentricity": 0.0002229,
      "argument_of_perigee": 88.9378,
      "mean_anomaly": 271.2009,
      "mean_motion": 13.16594799,
      "revolution_number": 19725,
      "line1": "1 48972U 21060F   25201.73544719 -.00000035  00000+0 -12614-3 0  9995",
      "line2": "2 48972  87.9061 294.8294 0002229  88.9378 271.2009 13.16594799197258",
      "last_updated": "2025-07-21T05:06:13.714237+00:00",
      "constellation": "oneweb"
    }
  ]
}